{
  "type": "FeatureCollection",
  "features": [
    {
      "type": "Feature",
      "properties": {
        "norad_id": 33376,
        "name": "GALAXY 19 (G-19)",
        "group": "intelsat",
        "lat": 0.035818345434992516,
        "lon": 99.54214058401595,
        "alt_km": 35797.23748277495,
        "timestamp": "2025-12-14T07:33:19.145856+00:00",
        "meta_object_name": "GALAXY 19 (G-19)",
        "meta_object_id": "2008-045A",
        "meta_epoch": "2025-12-13T14:41:58.578720",
        "meta_mean_motion": 1.00269784,
        "meta_eccentricity": 0.00025657,
        "meta_inclination": 0.0192,
        "meta_ra_of_asc_node": 2.8724,
        "meta_arg_of_pericenter": 263.6324,
        "meta_mean_anomaly": 299.5303,
        "meta_ephemeris_type": 0,
        "meta_classification_type": "U",
        "meta_norad_cat_id": 33376,
        "meta_element_set_no": 999,
        "meta_rev_at_epoch": 6304,
        "meta_bstar": 0,
        "meta_mean_motion_dot": 0,
        "meta_mean_motion_ddot": 0,
        "tle_line1": "1 33376U 08045A   25347.61248355  .00000000  00000+0  00000+0 0  9992",
        "tle_line2": "2 33376   0.0192   2.8724 0002565 263.6324 299.5303  1.00269784 63044"
      },
      "geometry": {
        "type": "Point",
        "coordinates": [
          99.54214058401595,
          0.035818345434992516
        ]
      }
    },
    {
      "type": "Feature",
      "properties": {
        "norad_id": 35493,
        "name": "FM-5",
        "group": "intelsat",
        "lat": 0.00926616195977285,
        "lon": 110.4065750237076,
        "alt_km": 35784.15592006618,
        "timestamp": "2025-12-14T07:33:19.145869+00:00",
        "meta_object_name": "FM-5",
        "meta_object_id": "2009-034A",
        "meta_epoch": "2025-12-13T04:28:45.829056",
        "meta_mean_motion": 1.00271954,
        "meta_eccentricity": 7.249e-05,
        "meta_inclination": 0.0178,
        "meta_ra_of_asc_node": 291.2415,
        "meta_arg_of_pericenter": 229.2636,
        "meta_mean_anomaly": 262.6658,
        "meta_ephemeris_type": 0,
        "meta_classification_type": "U",
        "meta_norad_cat_id": 35493,
        "meta_element_set_no": 999,
        "meta_rev_at_epoch": 4477,
        "meta_bstar": 0,
        "meta_mean_motion_dot": -1.87e-06,
        "meta_mean_motion_ddot": 0,
        "tle_line1": "1 35493U 09034A   25347.18664154 -.00000187  00000+0  00000+0 0  9991",
        "tle_line2": "2 35493   0.0178 291.2415 0000724 229.2636 262.6658  1.00271954 44775"
      },
      "geometry": {
        "type": "Point",
        "coordinates": [
          110.4065750237076,
          0.00926616195977285
        ]
      }
    },
    {
      "type": "Feature",
      "properties": {
        "norad_id": 36097,
        "name": "INTELSAT 14 (IS-14)",
        "group": "intelsat",
        "lat": 0.017575675325550252,
        "lon": 151.53697020193482,
        "alt_km": 35790.66046296546,
        "timestamp": "2025-12-14T07:33:19.145881+00:00",
        "meta_object_name": "INTELSAT 14 (IS-14)",
        "meta_object_id": "2009-064A",
        "meta_epoch": "2025-12-13T11:31:24.330144",
        "meta_mean_motion": 1.00272102,
        "meta_eccentricity": 0.0002467,
        "meta_inclination": 0.0177,
        "meta_ra_of_asc_node": 37.7189,
        "meta_arg_of_pericenter": 229.9207,
        "meta_mean_anomaly": 302.6303,
        "meta_ephemeris_type": 0,
        "meta_classification_type": "U",
        "meta_norad_cat_id": 36097,
        "meta_element_set_no": 999,
        "meta_rev_at_epoch": 5874,
        "meta_bstar": 0,
        "meta_mean_motion_dot": -2.59e-06,
        "meta_mean_motion_ddot": 0,
        "tle_line1": "1 36097U 09064A   25347.48014271 -.00000259  00000+0  00000+0 0  9997",
        "tle_line2": "2 36097   0.0177  37.7189 0002467 229.9207 302.6303  1.00272102 58743"
      },
      "geometry": {
        "type": "Point",
        "coordinates": [
          151.53697020193482,
          0.017575675325550252
        ]
      }
    },
    {
      "type": "Feature",
      "properties": {
        "norad_id": 36106,
        "name": "INTELSAT 15 (IS-15)",
        "group": "intelsat",
        "lat": -0.016425005664671224,
        "lon": -78.2849461819182,
        "alt_km": 35776.52751651667,
        "timestamp": "2025-12-14T07:33:19.145893+00:00",
        "meta_object_name": "INTELSAT 15 (IS-15)",
        "meta_object_id": "2009-067A",
        "meta_epoch": "2025-12-13T15:34:01.094592",
        "meta_mean_motion": 1.00272235,
        "meta_eccentricity": 0.00022805,
        "meta_inclination": 0.0169,
        "meta_ra_of_asc_node": 298.5038,
        "meta_arg_of_pericenter": 332.2116,
        "meta_mean_anomaly": 130.521,
        "meta_ephemeris_type": 0,
        "meta_classification_type": "U",
        "meta_norad_cat_id": 36106,
        "meta_element_set_no": 999,
        "meta_rev_at_epoch": 3936,
        "meta_bstar": 0,
        "meta_mean_motion_dot": -1.7e-06,
        "meta_mean_motion_ddot": 0,
        "tle_line1": "1 36106U 09067A   25347.64862378 -.00000170  00000+0  00000+0 0  9990",
        "tle_line2": "2 36106   0.0169 298.5038 0002280 332.2116 130.5210  1.00272235 39364"
      },
      "geometry": {
        "type": "Point",
        "coordinates": [
          -78.2849461819182,
          -0.016425005664671224
        ]
      }
    },
    {
      "type": "Feature",
      "properties": {
        "norad_id": 36131,
        "name": "DIRECTV 12",
        "group": "intelsat",
        "lat": 0.006745429861867633,
        "lon": 93.84816820994403,
        "alt_km": 35786.178154596455,
        "timestamp": "2025-12-14T07:33:19.145906+00:00",
        "meta_object_name": "DIRECTV 12",
        "meta_object_id": "2009-075A",
        "meta_epoch": "2025-12-13T14:40:21.235296",
        "meta_mean_motion": 1.00272672,
        "meta_eccentricity": 4.856e-05,
        "meta_inclination": 0.0277,
        "meta_ra_of_asc_node": 147.8107,
        "meta_arg_of_pericenter": 206.4221,
        "meta_mean_anomaly": 205.6821,
        "meta_ephemeris_type": 0,
        "meta_classification_type": "U",
        "meta_norad_cat_id": 36131,
        "meta_element_set_no": 999,
        "meta_rev_at_epoch": 4469,
        "meta_bstar": 0,
        "meta_mean_motion_dot": -8.8e-07,
        "meta_mean_motion_ddot": 0,
        "tle_line1": "1 36131U 09075A   25347.61135689 -.00000088  00000+0  00000+0 0  9990",
        "tle_line2": "2 36131   0.0277 147.8107 0000485 206.4221 205.6821  1.00272672 44698"
      },
      "geometry": {
        "type": "Point",
        "coordinates": [
          93.84816820994403,
          0.006745429861867633
        ]
      }
    },
    {
      "type": "Feature",
      "properties": {
        "norad_id": 36397,
        "name": "INTELSAT 16 (IS-16)",
        "group": "intelsat",
        "lat": 0.012183722019072689,
        "lon": 120.34816209286045,
        "alt_km": 35793.11778026093,
        "timestamp": "2025-12-14T07:33:19.145918+00:00",
        "meta_object_name": "INTELSAT 16 (IS-16)",
        "meta_object_id": "2010-006A",
        "meta_epoch": "2025-12-13T13:05:15.342144",
        "meta_mean_motion": 1.00271986,
        "meta_eccentricity": 0.00020301,
        "meta_inclination": 0.0086,
        "meta_ra_of_asc_node": 321.155,
        "meta_arg_of_pericenter": 304.0608,
        "meta_mean_anomaly": 297.3804,
        "meta_ephemeris_type": 0,
        "meta_classification_type": "U",
        "meta_norad_cat_id": 36397,
        "meta_element_set_no": 999,
        "meta_rev_at_epoch": 5779,
        "meta_bstar": 0,
        "meta_mean_motion_dot": -2.3e-06,
        "meta_mean_motion_ddot": 0,
        "tle_line1": "1 36397U 10006A   25347.54531646 -.00000230  00000+0  00000+0 0  9994",
        "tle_line2": "2 36397   0.0086 321.1550 0002030 304.0608 297.3804  1.00271986 57792"
      },
      "geometry": {
        "type": "Point",
        "coordinates": [
          120.34816209286045,
          0.012183722019072689
        ]
      }
    },
    {
      "type": "Feature",
      "properties": {
        "norad_id": 37185,
        "name": "XM-5",
        "group": "intelsat",
        "lat": 0.02855237313682305,
        "lon": 81.34894798365129,
        "alt_km": 35783.1650451662,
        "timestamp": "2025-12-14T07:33:19.145929+00:00",
        "meta_object_name": "XM-5",
        "meta_object_id": "2010-053A",
        "meta_epoch": "2025-12-13T09:45:51.253344",
        "meta_mean_motion": 1.00272483,
        "meta_eccentricity": 0.00016369,
        "meta_inclination": 0.0606,
        "meta_ra_of_asc_node": 273.0003,
        "meta_arg_of_pericenter": 235.4668,
        "meta_mean_anomaly": 325.1445,
        "meta_ephemeris_type": 0,
        "meta_classification_type": "U",
        "meta_norad_cat_id": 37185,
        "meta_element_set_no": 999,
        "meta_rev_at_epoch": 5562,
        "meta_bstar": 0,
        "meta_mean_motion_dot": -9e-08,
        "meta_mean_motion_ddot": 0,
        "tle_line1": "1 37185U 10053A   25347.40684321 -.00000009  00000+0  00000+0 0  9990",
        "tle_line2": "2 37185   0.0606 273.0003 0001636 235.4668 325.1445  1.00272483 55622"
      },
      "geometry": {
        "type": "Point",
        "coordinates": [
          81.34894798365129,
          0.02855237313682305
        ]
      }
    }
  ]
}